{
    "links": {
        "self": "http://www.neowsapp.com/rest/v1/neo/3607819?api_key=iIulBulltgU6a56xZRHN4H3l9WmuAYTsLGpBGhQ2"
    },
    "id": "3607819",
    "neo_reference_id": "3607819",
    "name": "(2012 QH14)",
    "designation": "2012 QH14",
    "nasa_jpl_url": "http://ssd.jpl.nasa.gov/sbdb.cgi?sstr=3607819",
    "absolute_magnitude_h": 27.3,
    "estimated_diameter": {
        "kilometers": {
            "estimated_diameter_min": 0.0092162655,
            "estimated_diameter_max": 0.0206081961
        },
        "meters": {
            "estimated_diameter_min": 9.216265485,
            "estimated_diameter_max": 20.6081961232
        },
        "miles": {
            "estimated_diameter_min": 0.0057267201,
            "estimated_diameter_max": 0.0128053354
        },
        "feet": {
            "estimated_diameter_min": 30.2370924539,
            "estimated_diameter_max": 67.6121941689
        }
    },
    "is_potentially_hazardous_asteroid": false,
    "close_approach_data": [
        {
            "close_approach_date": "2012-08-25",
            "close_approach_date_full": "2012-Aug-25 13:42",
            "epoch_date_close_approach": 1345902120000,
            "relative_velocity": {
                "kilometers_per_second": "10.8204123087",
                "kilometers_per_hour": "38953.4843112318",
                "miles_per_hour": "24204.1802932762"
            },
            "miss_distance": {
                "astronomical": "0.0090288185",
                "lunar": "3.5122103965",
                "kilometers": "1350692.016216595",
                "miles": "839281.100895211"
            },
            "orbiting_body": "Earth"
        },
        {
            "close_approach_date": "2015-09-21",
            "close_approach_date_full": "2015-Sep-21 00:48",
            "epoch_date_close_approach": 1442796480000,
            "relative_velocity": {
                "kilometers_per_second": "12.503363195",
                "kilometers_per_hour": "45012.1075018916",
                "miles_per_hour": "27968.7731308282"
            },
            "miss_distance": {
                "astronomical": "0.0800350392",
                "lunar": "31.1336302488",
                "kilometers": "11973071.389686504",
                "miles": "7439721.5770775952"
            },
            "orbiting_body": "Mars"
        }
    ],
    "orbital_data": {
        "orbit_id": "9",
        "orbit_determination_date": "2017-04-06 08:49:13",
        "first_observation_date": "2012-08-21",
        "last_observation_date": "2012-08-26",
        "data_arc_in_days": 5,
        "observations_used": 35,
        "orbit_uncertainty": "7",
        "minimum_orbit_intersection": ".00590784",
        "jupiter_tisserand_invariant": "3.754",
        "epoch_osculation": "2459000.5",
        "eccentricity": ".5270192183617385",
        "semi_major_axis": "1.910052285997633",
        "inclination": "1.086323437091668",
        "ascending_node_longitude": "135.8106930181518",
        "orbital_period": "964.1981872060942",
        "perihelion_distance": ".9034180232011088",
        "perihelion_argument": "243.9622538732733",
        "aphelion_distance": "2.916686548794158",
        "perihelion_time": "2459093.122527244162",
        "mean_anomaly": "325.4177841751417",
        "mean_motion": ".3733672234368671",
        "equinox": "J2000",
        "orbit_class": {
            "orbit_class_type": "APO",
            "orbit_class_description": "Near-Earth asteroid orbits which cross the Earth’s orbit similar to that of 1862 Apollo",
            "orbit_class_range": "a (semi-major axis) > 1.0 AU; q (perihelion) < 1.017 AU"
        }
    },
    "is_sentry_object": false
}